COMMENT,ORIGINATOR,NORAD_CAT_ID,OBJECT_NAME,OBJECT_TYPE,CLASSIFICATION_TYPE,INTLDES,EPOCH,EPOCH_MICROSECONDS,MEAN_MOTION,ECCENTRICITY,INCLINATION,RA_OF_ASC_NODE,ARG_OF_PERICENTER,MEAN_ANOMALY,EPHEMERIS_TYPE,ELEMENT_SET_NO,REV_AT_EPOCH,BSTAR,MEAN_MOTION_DOT,MEAN_MOTION_DDOT,FILE,TLE_LINE0,TLE_LINE1,TLE_LINE2,OBJECT_ID,OBJECT_NUMBER,SEMIMAJOR_AXIS,PERIOD,APOGEE,PERIGEE,DECAYED,date
GENERATED VIA SPACETRACK.ORG API,18 SPCS,48899,SPACEBEE-110,PAYLOAD,U,21059W,2023/4/30 21:22,587968,15.29868514,0.0007273,97.5903,257.4559,83.8653,276.3415,0,999,10219,0.00095102,0.00027519,0,3897683,0 SPACEBEE-110,1 48899U 21059W   23120.89075912  .00027519  00000-0  95102-3 0  9998,2 48899  97.5903 257.4559 0007273  83.8653 276.3415 15.29868514102192,2021-059W,48899,6854.342,94.126,481.192,471.222,0,
